

*******************************************************************************
Ephemeris / WWW_USER Sat Nov 22 14:10:22 2025 Pasadena, USA      / Horizons
*******************************************************************************
Target body name: 153814 (2001 WN5)               {source: JPL#194}
Center body name: Sun (10)                        {source: DE441}
Center-site name: BODY CENTER
*******************************************************************************
Start time      : A.D. 2028-Jan-01 00:00:00.0000 TDB
Stop  time      : A.D. 2028-Dec-30 00:00:00.0000 TDB
Step-size       : 60 minutes
*******************************************************************************
Center geodetic : 0.0, 0.0, 0.0                   {E-lon(deg),Lat(deg),Alt(km)}
Center cylindric: 0.0, 0.0, 0.0                   {E-lon(deg),Dxy(km),Dz(km)}
Center radii    : 695700.0, 695700.0, 695700.0 km {Equator_a, b, pole_c}
Small perturbers: Yes                             {source: SB441-N16}
Output units    : KM-S
Calendar mode   : Gregorian
Output type     : GEOMETRIC cartesian states
Output format   : 2 (position and velocity)
Reference frame : ICRF
*******************************************************************************
Initial IAU76/J2000 heliocentric ecliptic osculating elements (au, days, deg.):
  EPOCH=  2458083.5 ! 2017-Nov-26.00 (TDB)         Residual RMS= .21941        
   EC= .4669729312323679   QR= .9124751621924232   TP= 2457895.4428082719      
   OM= 277.5057205071764   W=  44.56461706945646   IN= 1.919764913833357       
  Equivalent ICRF heliocentric cartesian coordinates (au, au/d):
   X=-1.676694576041798E-01  Y= 1.791601297305704E+00  Z= 7.800061671072777E-01
  VX=-1.054047314943854E-02 VY= 3.991332353811014E-03 VZ= 1.368748066788809E-03
Asteroid physical parameters (km, seconds, rotational period in hours):        
   GM= n.a.                RAD= .466               ROTPER= 4.253               
   H= 18.28                G= .150                 B-V= n.a.                   
                           ALBEDO= .097            STYP= n.a.                  
*******************************************************************************
            JDTDB,            Calendar Date (TDB),                      X,                      Y,                      Z,                     VX,                     VY,                     VZ,
**************************************************************************************************************************************************************************************************
$$SOE
2462091.333333333, A.D. 2028-Nov-15 20:00:00.0000,  9.660257048048396E+07,  1.759188287358624E+08,  8.167579504261625E+07, -1.597671780207357E+01,  1.952122571515356E+01,  7.851464687537806E+00,
2462091.375000000, A.D. 2028-Nov-15 21:00:00.0000,  9.654504613394453E+07,  1.759890902777555E+08,  8.170405341139017E+07, -1.598125160718137E+01,  1.951296447725113E+01,  7.847629226787541E+00,
2462091.416666667, A.D. 2028-Nov-15 22:00:00.0000,  9.648750547531870E+07,  1.760593220819143E+08,  8.173229797413769E+07, -1.598578007340398E+01,  1.950470475221933E+01,  7.843794673103130E+00,
2462091.458333333, A.D. 2028-Nov-15 23:00:00.0000,  9.642994852381755E+07,  1.761295241537878E+08,  8.176052873412514E+07, -1.599030320535916E+01,  1.949644654120780E+01,  7.839961026780075E+00,
2462091.500000000, A.D. 2028-Nov-16 00:00:00.0000,  9.637237529863550E+07,  1.761996964988294E+08,  8.178874569461980E+07, -1.599482100766082E+01,  1.948818984536243E+01,  7.836128288112407E+00,
2462091.541666667, A.D. 2028-Nov-16 01:00:00.0000,  9.631478581895223E+07,  1.762698391224943E+08,  8.181694885888918E+07, -1.599933348491884E+01,  1.947993466582563E+01,  7.832296457392815E+00,
2462091.583333333, A.D. 2028-Nov-16 02:00:00.0000,  9.625718010392901E+07,  1.763399520302438E+08,  8.184513823020272E+07, -1.600384064173939E+01,  1.947168100373582E+01,  7.828465534912397E+00,
2462091.625000000, A.D. 2028-Nov-16 03:00:00.0000,  9.619955817271051E+07,  1.764100352275437E+08,  8.187331381183089E+07, -1.600834248272479E+01,  1.946342886022770E+01,  7.824635520960793E+00,
2462091.666666667, A.D. 2028-Nov-16 04:00:00.0000,  9.614192004442666E+07,  1.764800887198614E+08,  8.190147560704431E+07, -1.601283901247333E+01,  1.945517823643250E+01,  7.820806415826307E+00,
2462091.708333333, A.D. 2028-Nov-16 05:00:00.0000,  9.608426573818909E+07,  1.765501125126705E+08,  8.192962361911556E+07, -1.601733023557961E+01,  1.944692913347749E+01,  7.816978219795662E+00,
2462091.750000000, A.D. 2028-Nov-16 06:00:00.0000,  9.602659527309275E+07,  1.766201066114490E+08,  8.195775785131821E+07, -1.602181615663438E+01,  1.943868155248623E+01,  7.813150933154135E+00,
2462091.791666667, A.D. 2028-Nov-16 07:00:00.0000,  9.596890866821806E+07,  1.766900710216764E+08,  8.198587830692598E+07, -1.602629678022435E+01,  1.943043549457886E+01,  7.809324556185669E+00,
2462091.833333333, A.D. 2028-Nov-16 08:00:00.0000,  9.591120594262701E+07,  1.767600057488385E+08,  8.201398498921449E+07, -1.603077211093257E+01,  1.942219096087155E+01,  7.805499089172651E+00,
2462091.875000000, A.D. 2028-Nov-16 09:00:00.0000,  9.585348711536510E+07,  1.768299107984253E+08,  8.204207790146041E+07, -1.603524215333822E+01,  1.941394795247681E+01,  7.801674532396013E+00,
2462091.916666667, A.D. 2028-Nov-16 10:00:00.0000,  9.579575220546323E+07,  1.768997861759283E+08,  8.207015704694046E+07, -1.603970691201647E+01,  1.940570647050373E+01,  7.797850886135381E+00,
2462091.958333333, A.D. 2028-Nov-16 11:00:00.0000,  9.573800123193400E+07,  1.769696318868454E+08,  8.209822242893334E+07, -1.604416639153880E+01,  1.939746651605747E+01,  7.794028150668814E+00,
2462092.000000000, A.D. 2028-Nov-16 12:00:00.0000,  9.568023421377346E+07,  1.770394479366785E+08,  8.212627405071867E+07, -1.604862059647285E+01,  1.938922809023954E+01,  7.790206326272947E+00,
2462092.041666667, A.D. 2028-Nov-16 13:00:00.0000,  9.562245116996320E+07,  1.771092343309311E+08,  8.215431191557622E+07, -1.605306953138227E+01,  1.938099119414805E+01,  7.786385413223100E+00,
2462092.083333333, A.D. 2028-Nov-16 14:00:00.0000,  9.556465211946648E+07,  1.771789910751129E+08,  8.218233602678761E+07, -1.605751320082700E+01,  1.937275582887721E+01,  7.782565411793052E+00,
2462092.125000000, A.D. 2028-Nov-16 15:00:00.0000,  9.550683708123013E+07,  1.772487181747375E+08,  8.221034638763550E+07, -1.606195160936313E+01,  1.936452199551761E+01,  7.778746322255150E+00,
2462092.166666667, A.D. 2028-Nov-16 16:00:00.0000,  9.544900607418649E+07,  1.773184156353205E+08,  8.223834300140256E+07, -1.606638476154281E+01,  1.935628969515644E+01,  7.774928144880449E+00,
2462092.208333333, A.D. 2028-Nov-16 17:00:00.0000,  9.539115911724961E+07,  1.773880834623831E+08,  8.226632587137336E+07, -1.607081266191444E+01,  1.934805892887703E+01,  7.771110879938464E+00,
2462092.250000000, A.D. 2028-Nov-16 18:00:00.0000,  9.533329622931720E+07,  1.774577216614508E+08,  8.229429500083345E+07, -1.607523531502263E+01,  1.933982969775909E+01,  7.767294527697297E+00,
2462092.291666667, A.D. 2028-Nov-16 19:00:00.0000,  9.527541742927250E+07,  1.775273302380507E+08,  8.232225039306843E+07, -1.607965272540797E+01,  1.933160200287900E+01,  7.763479088423759E+00,
2462092.333333333, A.D. 2028-Nov-16 20:00:00.0000,  9.521752273598051E+07,  1.775969091977158E+08,  8.235019205136578E+07, -1.608406489760740E+01,  1.932337584530925E+01,  7.759664562383132E+00,
2462092.375000000, A.D. 2028-Nov-16 21:00:00.0000,  9.515961216828991E+07,  1.776664585459832E+08,  8.237811997901389E+07, -1.608847183615402E+01,  1.931515122611875E+01,  7.755850949839294E+00,
2462092.416666667, A.D. 2028-Nov-16 22:00:00.0000,  9.510168574503495E+07,  1.777359782883914E+08,  8.240603417930123E+07, -1.609287354557692E+01,  1.930692814637309E+01,  7.752038251054845E+00,
2462092.458333333, A.D. 2028-Nov-16 23:00:00.0000,  9.504374348503168E+07,  1.778054684304852E+08,  8.243393465551811E+07, -1.609727003040155E+01,  1.929870660713403E+01,  7.748226466290863E+00,
2462092.500000000, A.D. 2028-Nov-17 00:00:00.0000,  9.498578540707994E+07,  1.778749289778129E+08,  8.246182141095577E+07, -1.610166129514952E+01,  1.929048660945972E+01,  7.744415595807028E+00,
2462092.541666667, A.D. 2028-Nov-17 01:00:00.0000,  9.492781152996507E+07,  1.779443599359247E+08,  8.248969444890547E+07, -1.610604734433846E+01,  1.928226815440507E+01,  7.740605639861756E+00,
2462092.583333333, A.D. 2028-Nov-17 02:00:00.0000,  9.486982187245438E+07,  1.780137613103766E+08,  8.251755377266033E+07, -1.611042818248234E+01,  1.927405124302112E+01,  7.736796598711948E+00,
2462092.625000000, A.D. 2028-Nov-17 03:00:00.0000,  9.481181645329884E+07,  1.780831331067284E+08,  8.254539938551435E+07, -1.611480381409129E+01,  1.926583587635537E+01,  7.732988472613120E+00,
2462092.666666667, A.D. 2028-Nov-17 04:00:00.0000,  9.475379529123513E+07,  1.781524753305415E+08,  8.257323129076160E+07, -1.611917424367149E+01,  1.925762205545207E+01,  7.729181261819526E+00,
2462092.708333333, A.D. 2028-Nov-17 05:00:00.0000,  9.469575840498185E+07,  1.782217879873832E+08,  8.260104949169792E+07, -1.612353947572545E+01,  1.924940978135163E+01,  7.725374966583921E+00,
2462092.750000000, A.D. 2028-Nov-17 06:00:00.0000,  9.463770581324135E+07,  1.782910710828249E+08,  8.262885399162008E+07, -1.612789951475184E+01,  1.924119905509097E+01,  7.721569587157677E+00,
2462092.791666667, A.D. 2028-Nov-17 07:00:00.0000,  9.457963753470166E+07,  1.783603246224388E+08,  8.265664479382482E+07, -1.613225436524541E+01,  1.923298987770373E+01,  7.717765123790922E+00,
2462092.833333333, A.D. 2028-Nov-17 08:00:00.0000,  9.452155358803284E+07,  1.784295486118037E+08,  8.268442190161073E+07, -1.613660403169720E+01,  1.922478225021977E+01,  7.713961576732287E+00,
2462092.875000000, A.D. 2028-Nov-17 09:00:00.0000,  9.446345399188870E+07,  1.784987430565018E+08,  8.271218531827727E+07, -1.614094851859448E+01,  1.921657617366546E+01,  7.710158946229035E+00,
